STARLINK-35088          
1 65344U 25189X   25255.58335648 -.01535665  00000+0 -15464-1 0  9991
2 65344  53.1591 319.0576 0001304  59.7779  67.8111 15.67635058  3790
STARLINK-34831          
1 65345U 25189Y   25255.58335648 -.01533395  00000+0 -15440-1 0  9994
2 65345  53.1589 319.0495 0001373  54.6684  76.7550 15.67632893  3793
STARLINK-34873          
1 65346U 25189Z   25255.58335648 -.01544254  00000+0 -15559-1 0  9992
2 65346  53.1593 319.0733 0001226  53.5080  66.4133 15.67639235  3799
STARLINK-34881          
1 65347U 25189AA  25255.58335648 -.01536361  00000+0 -15471-1 0  9996
2 65347  53.1591 319.0614 0001308  58.7426  66.9281 15.67636207  3793
STARLINK-34859          
1 65348U 25189AB  25255.58335648 -.01535554  00000+0 -15463-1 0  9991
2 65348  53.1591 319.0659 0001231  55.0838  68.6698 15.67635869  3799
STARLINK-34895          
1 65349U 25189AC  25255.58335648 -.01537368  00000+0 -15483-1 0  9999
2 65349  53.1591 319.0538 0001331  58.5599  70.9455 15.67635890  3734
STARLINK-34892          
1 65350U 25189AD  25255.58335648 -.01538899  00000+0 -15500-1 0  9991
2 65350  53.1593 319.0453 0001256  57.7226  75.6188 15.67636017  3735
STARLINK-34985          
1 65379U 25191A   25255.58335648 -.01364014  00000+0 -11110-1 0  9994
2 65379  97.5964 123.9205 0001797  67.9679  96.1252 15.73343326  3366
STARLINK-35051          
1 65380U 25191B   25255.58335648 -.01366469  00000+0 -11132-1 0  9996
2 65380  97.5963 123.9208 0001837  68.0062  98.0088 15.73343907  3366
STARLINK-35028          
1 65381U 25191C   25255.58335648 -.01367292  00000+0 -11140-1 0  9991
2 65381  97.5964 123.9218 0001824  67.6138 100.3220 15.73344172  3364
STARLINK-35032          
1 65382U 25191D   25255.58335648 -.01366844  00000+0 -11135-1 0  9998
2 65382  97.5964 123.9232 0001856  69.3993 100.4564 15.73344509  3360
STARLINK-35054          
1 65383U 25191E   25255.58335648 -.01361840  00000+0 -11091-1 0  9991
2 65383  97.5960 123.9234 0001831  68.5668 103.2089 15.73342033  3141
STARLINK-35012          
1 65384U 25191F   25255.58335648 -.01367409  00000+0 -11141-1 0  9995
2 65384  97.5964 123.9254 0001864  69.6850 104.0125 15.73344506  3360
STARLINK-35073          
1 65385U 25191G   25255.58335648 -.01368862  00000+0 -11154-1 0  9994
2 65385  97.5963 123.9264 0001786  66.8933 110.6441 15.73345739  3368
STARLINK-35066          
1 65386U 25191H   25255.58335648 -.01362053  00000+0 -11093-1 0  9993
2 65386  97.5956 123.9249 0001968  71.3320 104.2878 15.73340465  3259
STARLINK-34703          
1 65387U 25191J   25255.58335648 -.01367682  00000+0 -11143-1 0  9993
2 65387  97.5962 123.9272 0001804  67.8012 111.6578 15.73344619  3366
STARLINK-34957          
1 65388U 25191K   25255.58335648 -.01368308  00000+0 -11149-1 0  9996
2 65388  97.5962 123.9279 0001757  66.6576 114.7220 15.73344846  3363
STARLINK-34993          
1 65389U 25191L   25255.58335648 -.01368659  00000+0 -11152-1 0  9990
2 65389  97.5966 123.9290 0001728  68.5637 114.7364 15.73345260  3368
STARLINK-35083          
1 65390U 25191M   25255.58335648 -.01363883  00000+0 -11109-1 0  9998
2 65390  97.5957 123.9292 0001783  70.5633 114.6561 15.73343584  3367
STARLINK-34786          
1 65391U 25191N   25255.58335648 -.01367338  00000+0 -11141-1 0  9994
2 65391  97.5962 123.9304 0001717  68.1945 118.9475 15.73344035  3367
STARLINK-35082          
1 65392U 25191P   25255.58335648 -.01356445  00000+0 -11042-1 0  9992
2 65392  97.5960 123.9317 0002200  83.2013 105.8642 15.73336972  3364
STARLINK-35097          
1 65393U 25191Q   25255.58335648 -.01362198  00000+0 -11094-1 0  9992
2 65393  97.5967 123.9331 0001944  72.6414 118.3433 15.73340627  3144
STARLINK-35058          
1 65394U 25191R   25255.58335648 -.01368300  00000+0 -11148-1 0  9994
2 65394  97.5959 123.9333 0001882  71.2969 121.6049 15.73346091  3364
STARLINK-35094          
1 65395U 25191S   25255.58335648 -.01350139  00000+0 -10988-1 0  9997
2 65395  97.5959 123.9340 0002196  89.2494 105.5841 15.73329988  3361
STARLINK-34811          
1 65396U 25191T   25255.58335648 -.01364792  00000+0 -11117-1 0  9993
2 65396  97.5961 123.9352 0001768  70.2563 126.4858 15.73344597  3362
STARLINK-34940          
1 65397U 25191U   25255.58335648 -.01367902  00000+0 -11145-1 0  9991
2 65397  97.5960 123.9355 0001766  70.7819 127.8831 15.73345104  3363
STARLINK-34931          
1 65398U 25191V   25255.58335648  .00364605  00000+0  25726-2 0  9997
2 65398  97.5957 123.9397 0001034  72.2079 128.4133 15.72990666  3369
STARLINK-34836          
1 65399U 25191W   25255.58335648 -.01265880  00000+0 -10268-1 0  9990
2 65399  97.5960 123.9391 0001734  69.1189 133.4728 15.73240046  3303
STARLINK-34876          
1 65400U 25191X   25255.58335648 -.01368095  00000+0 -11147-1 0  9992
2 65400  97.5965 123.9404 0001785  70.7740 135.5736 15.73345085  3258
STARLINK-34909          
1 65401U 25191Y   25255.22904887 -.00069872  00000+0 -48264-3 0  9993
2 65401  97.5937 123.5523 0003446  49.2816 310.8746 15.74629729  3291
STARLINK-34848          
1 65402U 25191Z   25255.58335648 -.01363196  00000+0 -11106-1 0  9996
2 65402  97.5964 123.9419 0001460  79.1155 129.1571 15.73339977  3303
SHIYAN-29               
1 65486U 25196A   25255.55269211 -.00000160  00000+0  00000+0 0  9998
2 65486  28.5172  22.0246 0090327 131.1005 224.4712  0.98867720    92
CZ-3C R/B               
1 65487U 25196B   25251.41819693  .00025655  00000+0  33348-2 0  9994
2 65487  28.4934  20.6057 6976947 130.0484 315.6750  2.68841397   106
2025-197A               
1 65488U 25197A   25251.16062515  .00005816  00000+0  26729-3 0  9994
2 65488  97.4119  76.9324 0014067 275.9123  84.0509 15.20666998   415
2025-197B               
1 65489U 25197B   25251.16057737  .00005565  00000+0  25580-3 0  9990
2 65489  97.4117  76.9325 0013220 277.6459  82.3275 15.20695336   404
2025-197C               
1 65490U 25197C   25251.16005615  .00005255  00000+0  23957-3 0  9992
2 65490  97.4119  76.9333 0014092 282.0844  77.8812 15.20990825   398
2025-197D               
1 65491U 25197D   25251.15999517  .00006845  00000+0  31070-3 0  9996
2 65491  97.4117  76.9332 0013873 282.8608  77.1078 15.21031443   398
2025-199A               
1 65544U 25199A   25255.56112508  .00000316  00000+0  12369-3 0  9990
2 65544  85.9956 168.6661 0011487 235.6302 124.3803 14.26258581   849
2025-199B               
1 65545U 25199B   25253.73619352  .00000034  00000+0  60911-5 0  9992
2 65545  85.9973 169.5026 0011215 250.6210 109.3769 14.26539319   584
2025-199C               
1 65546U 25199C   25254.36725880  .00000430  00000+0  17292-3 0  9999
2 65546  85.9973 169.2127 0008931 272.7025  87.3143 14.25730713   675
2025-199D               
1 65547U 25199D   25255.20790913  .00000423  00000+0  16622-3 0  9991
2 65547  85.9973 168.8265 0011019 250.0257 109.9747 14.26899871   797
2025-199E               
1 65548U 25199E   25255.34797752  .00000179  00000+0  65595-4 0  9997
2 65548  85.9961 168.7612 0010004 252.2182 107.7918 14.26934816   777
2025-199F               
1 65549U 25199F   25255.54732272  .00000493  00000+0  85938-4 0  9998
2 65549  86.0175 168.5545 0070233  51.0550 309.6892 14.64049009   850
GEESAT-5 A              
1 65550U 25201A   25254.55220813  .00000644  00000+0  89193-4 0  9992
2 65550  49.9979 252.4599 0014475 298.8804  61.0685 14.90791970   414
GEESAT-5 B              
1 65551U 25201B   25254.28401313  .00000514  00000+0  76612-4 0  9997
2 65551  49.9876 253.7163 0011087 297.7267  62.2549 14.90473928   365
GEESAT-5 C              
1 65552U 25201C   25254.01570034  .00000563  00000+0  79698-4 0  9997
2 65552  49.9852 254.9747 0011498 302.1240  57.8585 14.91538973   328
GEESAT-5 D              
1 65553U 25201D   25254.01575154  .00000540  00000+0  78812-4 0  9998
2 65553  49.9945 254.9727 0012755 300.9409  59.0278 14.90771437   326
GEESAT-5 E              
1 65554U 25201E   25254.01564498  .00000565  00000+0  79688-4 0  9997
2 65554  49.9822 254.9750 0011296 297.8183  62.1613 14.91654073   324
GEESAT-5 F              
1 65555U 25201F   25254.14954527  .00000556  00000+0  79002-4 0  9998
2 65555  49.9788 254.3396 0012292 302.2711  57.7039 14.91529104   341
GEESAT-5 G              
1 65556U 25201G   25254.08250056  .00000563  00000+0  79698-4 0  9997
2 65556  49.9898 254.6555 0013293 303.5186  56.4485 14.91546086   334
GEESAT-5 H              
1 65557U 25201H   25254.01553069  .00000147  00000+0  39329-4 0  9996
2 65557  49.9965 255.0100 0015329 309.1969  50.7610 14.90786516   334
GEESAT-5 J              
1 65558U 25201J   25254.14933698  .00000158  00000+0  39433-4 0  9999
2 65558  49.9863 254.3452 0013350 299.4970  60.4640 14.92091200   342
GEESAT-5 K              
1 65559U 25201K   25254.01540197  .00000152  00000+0  39493-4 0  9994
2 65559  49.9838 254.9714 0014406 304.7326  55.2258 14.91276841   320
2025-201L               
1 65560U 25201L   25255.59112516  .00071412  00000+0  13405-2 0  9990
2 65560  50.0768 246.4945 0187038 359.5993   0.4788 15.31086069   572
2025-201M               
1 65561U 25201M   25254.28572302  .00018526  00000+0  35827-3 0  9999
2 65561  50.0812 252.9981 0187753 354.6065   5.2870 15.30890584   372
JIELONG-3 R/B           
1 65562U 25201N   25254.35778919  .01503159  10638-4  53452-3 0  9999
2 65562  50.1447 251.9529 0292240 356.4634   3.4274 15.71304813   395
YAOGAN-45               
1 65563U 25202A   25252.65735740  .00038817  00000+0  40609-3 0  9997
2 65563  20.0005  35.8037 3556493 127.8642 269.9958  8.41043634    62
CZ-7A R/B               
1 65564U 25202B   25254.39572250  .01132414 -10468-5  24484-3 0  9994
2 65564  20.0832  29.7830 3522366 136.7802 257.0182  8.63078683   213
PROGRESS-MS 32          
1 65586U 25204A   25254.83924399  .00178724  25892-4  23632-3 0  9996
2 65586  51.6349 238.3717 0014169 148.8051 211.3805 16.06134014    38
